INTELSAT 9 (IS-9)       
1 26451U 00043A   25087.41011208 -.00000010  00000+0  00000+0 0  9994
2 26451   9.4066  53.2082 0003230 332.9171  13.8300  1.00272110 90377
INTELSAT 10 (IS-10)     
1 26766U 01019A   25087.01572826 -.00000005  00000+0  00000+0 0  9995
2 26766   8.0051  63.7931 0003746 305.0401 248.6067  1.00272008 87452
INTELSAT 901 (IS-901)   
1 26824U 01024A   25087.17720943 -.00000206  00000+0  00000+0 0  9991
2 26824   0.0864 101.0981 0002316 279.5344 201.4865  1.00270018 87110
INTELSAT 902 (IS-902)   
1 26900U 01039A   25087.20292620 -.00000282  00000+0  00000+0 0  9996
2 26900   4.9874  77.2114 0004485 287.6648 203.9478  1.00272802 86295
INTELSAT 904 (IS-904)   
1 27380U 02007A   25086.74829617 -.00000213  00000+0  00000+0 0  9999
2 27380   5.7979  74.5082 0003173 298.3333  52.4689  1.00272064 84615
DIRECTV 5 (TEMPO 1)     
1 27426U 02023A   25087.13586697 -.00000056  00000+0  00000+0 0  9995
2 27426   3.7329  80.8849 0003389 287.1532 116.5538  1.00270754 83832
INTELSAT 905 (IS-905)   
1 27438U 02027A   25086.83895882 -.00000148  00000+0  00000+0 0  9999
2 27438   5.6260  75.1431 0005859 286.6753  43.1879  0.99738101 46886
GALAXY 3C (G-3C)        
1 27445U 02030A   25086.59251374 -.00000153  00000+0  00000+0 0  9992
2 27445   2.5766  83.7184 0002655  51.3172 168.6798  1.00271125 42019
INTELSAT 906 (IS-906)   
1 27513U 02041A   25087.12961508  .00000014  00000+0  00000+0 0  9992
2 27513   4.6661  78.4085 0002577 284.4446 293.7231  1.00271853 82495
GALAXY 23 (G-23)        
1 27854U 03034A   25087.21970287  .00000011  00000+0  00000+0 0  9994
2 27854   2.0428  85.2488 0002857 286.8589 131.9687  1.00272492 84078
GALAXY 13 (HORIZONS-1)  
1 27954U 03044A   25086.72440613  .00000130  00000+0  00000+0 0  9998
2 27954   0.2624  91.5573 0002375 278.9444 285.6657  1.00273686 42095
INTELSAT 10-02          
1 28358U 04022A   25086.89677466 -.00000014  00000+0  00000+0 0  9992
2 28358   0.0232 182.4644 0000917 168.5694 156.4090  1.00268859 76085
XM-3 (RHYTHM)           
1 28626U 05008A   25087.44014652 -.00000201  00000+0  00000+0 0  9997
2 28626   0.0485 261.4979 0001370 185.4373 171.2841  1.00260814 73593
DIRECTV 8               
1 28659U 05019A   25086.58764844 -.00000002  00000+0  00000+0 0  9993
2 28659   0.0252 198.4887 0002877 164.9686 274.3024  1.00270405 72594
GALAXY 28 (G-28)        
1 28702U 05022A   25087.15322664 -.00000189  00000+0  00000+0 0  9996
2 28702   2.1473  84.4818 0004173 225.0884 202.4535  1.00285618 72354
GALAXY 16 (G-16)        
1 29236U 06023A   25087.17753196 -.00000130  00000+0  00000+0 0  9997
2 29236   0.0252 221.1335 0002616 149.7453 139.8534  1.00272397 68792
DIRECTV 9S              
1 29494U 06043A   25086.92614142 -.00000115  00000+0  00000+0 0  9997
2 29494   1.2649  86.3450 0002996 282.7461  48.7081  1.00271799 46907
GALAXY 17 (G-17)        
1 31307U 07016B   25087.44364123 -.00000208  00000+0  00000+0 0  9996
2 31307   1.8398  85.6006 0003466 215.8834 319.3188  1.00270701 65608
DIRECTV 10              
1 31862U 07032A   25086.87661843 -.00000106  00000+0  00000+0 0  9992
2 31862   0.0437 353.8015 0000150 348.3183  56.2110  1.00271554 41114
INTELSAT 11 (IS-11)     
1 32253U 07044B   25077.38980492 -.00000266  00000+0  00000+0 0  9997
2 32253   2.3743  84.3185 0004940 358.1056 190.9695  1.00194353 63925
HORIZONS-2              
1 32388U 07063B   25087.18929898 -.00000255  00000+0  00000+0 0  9997
2 32388   1.4472  86.1726 0002213 297.9353 156.1027  1.00271589 63408
DIRECTV 11              
1 32729U 08013A   25087.44866896 -.00000129  00000+0  00000+0 0  9999
2 32729   0.0194   8.5589 0000120 192.3995  47.4665  1.00269729 62461
GALAXY 18 (G-18)        
1 32951U 08024A   25087.21942863  .00000022  00000+0  00000+0 0  9993
2 32951   0.0120 131.9122 0002965 233.0339 136.9046  1.00271787 61615
INTELSAT 25 (IS-25)     
1 33153U 08034A   25087.03794646 -.00000226  00000+0  00000+0 0  9990
2 33153   1.5535  85.8443 0003126 290.0436 151.9737  1.00270956 61161
GALAXY 19 (G-19)        
1 33376U 08045A   25087.17753196 -.00000143  00000+0  00000+0 0  9997
2 33376   0.0350 260.1571 0002787 116.0672 136.5150  1.00272246 60361
FM-5                    
1 35493U 09034A   25087.44117744 -.00000203  00000+0  00000+0 0  9998
2 35493   0.0312 265.0348 0003213 287.0554  66.6746  1.00269537 57505
INTELSAT 14 (IS-14)     
1 36097U 09064A   25087.10114037 -.00000277  00000+0  00000+0 0  9998
2 36097   0.0176 250.5617 0002389 114.5703 172.0437  1.00272439 56227
INTELSAT 15 (IS-15)     
1 36106U 09067A   25086.87753216 -.00000189  00000+0  00000+0 0  9995
2 36106   0.0209 150.6756 0002239 219.2667 216.6507  1.00272096 36753
DIRECTV 12              
1 36131U 09075A   25087.44797391 -.00000107  00000+0  00000+0 0  9998
2 36131   0.0036  49.5223 0000803 353.1196 202.0203  1.00271373 55912
INTELSAT 16 (IS-16)     
1 36397U 10006A   25087.17197705 -.00000248  00000+0  00000+0 0  9997
2 36397   0.0183 185.2055 0001841 188.7535 157.5891  1.00269699 55243
XM-5                    
1 37185U 10053A   25087.18308707 -.00000026  00000+0  00000+0 0  9996
2 37185   0.0314 265.5023 0001595 288.5596 302.4912  1.00271608 52979
INTELSAT 17 (IS-17)     
1 37238U 10065B   25086.91006735 -.00000005  00000+0  00000+0 0  9991
2 37238   0.0147 201.5857 0002685 181.9498 195.6497  1.00272099 48773
INTELSAT 28 (IS-28)     
1 37392U 11016A   25087.39256225 -.00000187  00000+0  00000+0 0  9994
2 37392   0.6503  88.5006 0003995 278.5777 298.6362  1.00144549 51040
INTELSAT 18 (IS-18)     
1 37834U 11056A   25087.43261848  .00000050  00000+0  00000+0 0  9999
2 37834   0.0213 153.8734 0001832 217.0726 150.8778  1.00273058 49378
INTELSAT 22 (IS-22)     
1 38098U 12011A   25086.91128368 -.00000062  00000+0  00000+0 0  9999
2 38098   0.0193 137.2952 0001768 236.1168 212.3125  1.00271626  2712
INTELSAT 19 (IS-19)     
1 38356U 12030A   25086.74781902 -.00000060  00000+0  00000+0 0  9995
2 38356   0.0229 180.1915 0002945 192.6317 247.8106  1.00269869 45967
INTELSAT 20 (IS-20)     
1 38740U 12043A   25086.62492010 -.00000028  00000+0  00000+0 0  9996
2 38740   0.0102 172.7901 0002620  14.3764 291.5869  1.00271561 46271
INTELSAT 21 (IS-21)     
1 38749U 12045A   25087.46626249 -.00000288  00000+0  00000+0 0  9991
2 38749   0.0141 140.5035 0001840 235.4264 280.0530  1.00272086 46167
INTELSAT 23 (IS-23)     
1 38867U 12057A   25086.74343293 -.00000288  00000+0  00000+0 0  9990
2 38867   0.0175 179.3843 0000972 112.7352 107.9098  1.00273332 45634
FM-6                    
1 39360U 13058A   25087.51047420 -.00000020  00000+0  00000+0 0  9994
2 39360   0.0182 244.8270 0000730 251.1659 117.7854  1.00272583 41871
INTELSAT 30 (IS-30)     
1 40271U 14062A   25086.59242686 -.00000154  00000+0  00000+0 0  9999
2 40271   0.0141 165.4817 0000816 265.9911 232.0096  1.00269960  2302
DIRECTV 14              
1 40333U 14078B   25087.44858208 -.00000128  00000+0  00000+0 0  9994
2 40333   0.0320 294.2339 0000763 243.7418  70.3793  1.00265014 37779
DIRECTV 15              
1 40663U 15026A   25087.41781021 -.00000106  00000+0  00000+0 0  9995
2 40663   0.0349  96.2593 0000284 133.1498   4.2005  1.00273685 36062
SKY MEXICO-1            
1 40664U 15026B   25087.48828920 -.00000238  00000+0  00000+0 0  9999
2 40664   0.0420  32.8519 0002369 354.5498 255.7550  1.00272185 36064
INTELSAT 34 (IS-34)     
1 40874U 15039A   25087.37961162 -.00000289  00000+0  00000+0 0  9996
2 40874   0.0244 202.1660 0000625  35.0395  29.9871  1.00268861 35141
INTELSAT 31 (IS-31)     
1 41581U 16035A   25086.94940437 -.00000154  00000+0  00000+0 0  9994
2 41581   0.0094 181.5475 0002120  41.2722 209.5024  1.00271697 32200
INTELSAT 36 (IS-36)     
1 41747U 16053A   25086.62492010 -.00000027  00000+0  00000+0 0  9991
2 41747   0.0145 174.5331 0001111 149.8063 154.4179  1.00269051 31474
INTELSAT 32E (IS-32E)   
1 41945U 17007B   25086.88843416 -.00000272  00000+0  00000+0 0  9991
2 41945   0.0134 129.6074 0000846 231.7800 100.8096  1.00270964 29757
INTELSAT 35E (IS-35E)   
1 42818U 17041A   25086.89017176 -.00000241  00000+0  00000+0 0  9992
2 42818   0.0167 172.9578 0001949 191.9010 106.6755  1.00272026 28349
INTELSAT 37E (IS-37E)   
1 42950U 17059A   25086.79483230 -.00000144  00000+0  00000+0 0  9997
2 42950   0.0201 159.2728 0002125 216.1259  78.1826  1.00272348 27586
AZERSPACE 2 (IS-38)     
1 43632U 18074A   25087.43656147  .00000133  00000+0  00000+0 0  9991
2 43632   0.0116 209.2988 0001321 165.2411  13.8227  1.00270922 23970
HORIZONS-3E             
1 43633U 18074B   25087.33809936 -.00000034  00000+0  00000+0 0  9998
2 43633   0.0144 218.8275 0000891  89.3003 168.5721  1.00269557 23857
AT&T T-16               
1 44333U 19034A   25087.35530759 -.00000119  00000+0  00000+0 0  9993
2 44333   0.0256 105.7459 0001244  64.9049  42.4073  1.00274212 21154
INTELSAT 39 (IS-39)     
1 44476U 19049B   25087.40915640  .00000031  00000+0  00000+0 0  9991
2 44476   0.0052 163.1815 0000357 309.2745 282.8374  1.00269950 20653
GALAXY 30 (G-30)        
1 46114U 20056C   25087.18864198  .00000033  00000+0  00000+0 0  9990
2 46114   0.0020 169.8195 0001906 200.2739 118.6659  1.00271687 16935
GALAXY 33 (G-33)        
1 54026U 22128A   25086.55177966  .00000076  00000+0  00000+0 0  9990
2 54026   0.0135 127.3869 0001786 234.7880 248.6794  1.00269657  9250
GALAXY 34 (G-34)        
1 54027U 22128B   25086.51432142  .00000055  00000+0  00000+0 0  9994
2 54027   0.0202 183.3106 0001403 185.6612 232.4379  1.00269959  9294
GALAXY 31 (G-31)        
1 54243U 22153A   25087.21953620  .00000010  00000+0  00000+0 0  9990
2 54243   0.0134 148.5149 0001278 216.5377 138.8536  1.00271026  8684
GALAXY 32 (G-32)        
1 54244U 22153B   25086.95036006 -.00000177  00000+0  00000+0 0  9996
2 54244   0.0177 168.9711 0002859 191.7051  76.0729  1.00269363  8691
GALAXY 35 (G-35)        
1 54741U 22170A   25087.15322664 -.00000166  00000+0  00000+0 0  9996
2 54741   0.0124 145.7176 0001904 220.0918 142.0543  1.00271722  8433
GALAXY 36 (G-36)        
1 54742U 22170B   25086.89558711 -.00000188  00000+0  00000+0 0  9995
2 54742   0.0099 199.7516 0002140 211.8600   7.3490  1.00271994  8290
GALAXY 37 (G-37)        
1 57493U 23112A   25087.21441079  .00000045  00000+0  00000+0 0  9994
2 57493   0.0172 201.5711 0001918 163.3987 131.0954  1.00269718  6040
